[{"OBJECT_NAME":"STARLINK-30836","OBJECT_ID":"2023-170R","EPOCH":"2026-03-09T22:00:01.999584","MEAN_MOTION":15.26882278,"ECCENTRICITY":0.00016104,"INCLINATION":43.0035,"RA_OF_ASC_NODE":192.7696,"ARG_OF_PERICENTER":280.2971,"MEAN_ANOMALY":170.7164,"EPHEMERIS_TYPE":0,"CLASSIFICATION_TYPE":"U","NORAD_CAT_ID":58221,"ELEMENT_SET_NO":999,"REV_AT_EPOCH":578,"BSTAR":0.0014588307,"MEAN_MOTION_DOT":0.0003925,"MEAN_MOTION_DDOT":0},{"OBJECT_NAME":"JINJUSAT-1B","OBJECT_ID":"2025-052A","EPOCH":"2026-03-09T15:55:38.242848","MEAN_MOTION":15.30194857,"ECCENTRICITY":0.00055504,"INCLINATION":97.4113,"RA_OF_ASC_NODE":325.4613,"ARG_OF_PERICENTER":82.193,"MEAN_ANOMALY":277.9941,"EPHEMERIS_TYPE":0,"CLASSIFICATION_TYPE":"U","NORAD_CAT_ID":63210,"ELEMENT_SET_NO":999,"REV_AT_EPOCH":5486,"BSTAR":0.00068430401,"MEAN_MOTION_DOT":0.00019955,"MEAN_MOTION_DDOT":0}]
